{"type":"FeatureCollection","features":[{"type":"Feature","properties":{"zone_name":"Downtown"},"geometry":{"coordinates":[[[-77.0394014119056,38.8987060578975],[-77.03801364383092,38.89875761148821],[-77.03794741662082,38.90019741754466],[-77.03523860878418,38.900145993766785],[-77.03510658347396,38.89880874990578],[-77.03352066097968,38.89880869319228],[-77.02384650600068,38.90219020090464],[-77.02391775042277,38.9056881014117],[-77.02393913194638,38.90718779293965],[-77.02705866996992,38.90721038382543],[-77.02705028804957,38.905644905744765],[-77.03206854778695,38.90574783918058],[-77.03655940378415,38.907136858608084],[-77.036493588338,38.90569817867009],[-77.04679999542905,38.90569863333022],[-77.0475271158803,38.905390295754756],[-77.050169036037,38.90261389411006],[-77.0394014119056,38.8987060578975]]],"type":"Polygon"}},{"type":"Feature","properties":{"zone_name":"Logan Circle"},"geometry":{"coordinates":[[[-77.03448624207188,38.91414914431812],[-77.0344622329898,38.90650365270835],[-77.03206602538286,38.90574151448797],[-77.02704431479388,38.90564422489837],[-77.02704229400075,38.91414914431812],[-77.03448624207188,38.91414914431812]]],"type":"Polygon"}},{"type":"Feature","properties":{"zone_name":"Shaw"},"geometry":{"coordinates":[[[-77.02704230809331,38.91409723049736],[-77.02704743791634,38.90720639749679],[-77.02403751184062,38.90719528305405],[-77.01534468492811,38.90722677293553],[-77.01792240932473,38.914628857357],[-77.0229428096241,38.9168015518199],[-77.02404195051807,38.91707891228262],[-77.02413107005,38.914120344791684],[-77.02704230809331,38.91409723049736]]],"type":"Polygon"}},{"type":"Feature","properties":{"zone_name":"Georgetown"},"geometry":{"coordinates":[[[-77.05828969660482,38.901128072281125],[-77.05830544321189,38.90160995651155],[-77.05505195569911,38.9060105850792],[-77.05423858236331,38.90773233504956],[-77.0536382364531,38.90850089136356],[-77.05288296256634,38.908832422890356],[-77.05069460489406,38.90899818807361],[-77.05009425898389,38.909525620170996],[-77.05146924477816,38.91080651037851],[-77.05704665285651,38.91070102810079],[-77.05716284883907,38.91264492608653],[-77.05931247451737,38.91261478853923],[-77.06419798291661,38.91373032798165],[-77.06415925092261,38.914709776312804],[-77.06716098047293,38.91483032286533],[-77.06842168614938,38.91672294519981],[-77.07068750781025,38.916602401862065],[-77.07163644166816,38.916376382551675],[-77.07227551957236,38.916527062172065],[-77.07297269546781,38.91664760563779],[-77.07267297408262,38.911821924611246],[-77.06927314848542,38.911826948278076],[-77.06924445072345,38.90872299428386],[-77.07159766718149,38.90867833208503],[-77.07154027165798,38.90430130026107],[-77.06689123883628,38.90313999992989],[-77.06498246963328,38.902406687109504],[-77.06280792244026,38.902077634023016],[-77.05907494975813,38.90080841497604],[-77.05828969660482,38.901128072281125]]],"type":"Polygon"}},{"type":"Feature","properties":{"zone_name":"National Mall"},"geometry":{"coordinates":[[[-77.0557704956569,38.89300362614421],[-77.05422447280607,38.89091642371076],[-77.05252203843527,38.88991259045321],[-77.0518517078586,38.887463292773134],[-77.04143110633942,38.87987354845933],[-77.04076043625375,38.879953902145104],[-77.04055407282424,38.88039567288743],[-77.04055405992332,38.88143981714376],[-77.04127631433738,38.882845325050255],[-77.0421016980287,38.88364848506154],[-77.04411343309252,38.88445164508548],[-77.04447451743961,38.885335059324234],[-77.04339132528129,38.886338945719444],[-77.04122476704008,38.88637913398529],[-77.0408636413185,38.88690116047701],[-77.03812943281594,38.88690111354231],[-77.03513766777016,38.886981223228446],[-77.03353876108181,38.8877038545798],[-77.03219770336707,38.88746295508733],[-77.01510571619716,38.887468990045875],[-77.0150657651579,38.89127828374822],[-77.01842165247544,38.892180045822556],[-77.02121822523995,38.89216449849701],[-77.02204161437668,38.89216080632434],[-77.03370324485796,38.8922184028678],[-77.033654107719,38.89881199307001],[-77.03513986812285,38.89883855151656],[-77.03524676540422,38.900138705468855],[-77.03787241163356,38.90017280658384],[-77.03802633253818,38.89884798630476],[-77.03940352473856,38.898735553318375],[-77.0394420049647,38.89227758043435],[-77.05056072095654,38.89228750964594],[-77.0557704956569,38.89300362614421]]],"type":"Polygon"}},{"type":"Feature","properties":{"zone_name":"Dupont Circle"},"geometry":{"coordinates":[[[-77.04944066238579,38.90965914896174],[-77.04867785790641,38.90955122768034],[-77.04868850448305,38.905350454716796],[-77.04752988195241,38.90538733410568],[-77.04673617377729,38.90569293408021],[-77.03647298623981,38.90571991588271],[-77.03654233210116,38.90714993672569],[-77.03446195624936,38.906529365180745],[-77.03446195624936,38.91710532112387],[-77.04129252363082,38.91707834364951],[-77.04600804222915,38.91462335053828],[-77.0470829030863,38.91367909980531],[-77.04760299704925,38.912734836509486],[-77.04881654962968,38.91168264260969],[-77.05061954203495,38.912195251842775],[-77.05183309461592,38.91187149907384],[-77.05096627134395,38.9110081511368],[-77.04944066238579,38.90965914896174]]],"type":"Polygon"}},{"type":"Feature","properties":{"zone_name":"Penn Quarter"},"geometry":{"coordinates":[[[-77.02423908751256,38.902099473575305],[-77.03358355926967,38.89878854157385],[-77.03373534233343,38.89220584188146],[-77.01850373192383,38.89216658702756],[-77.01987073689422,38.892550562792565],[-77.01979476557892,38.89991191080702],[-77.02385923093736,38.899882348686674],[-77.02382124527938,38.90218815713084],[-77.02423908751256,38.902099473575305]]],"type":"Polygon"}},{"type":"Feature","properties":{"zone_name":"Foggy Bottom"},"geometry":{"coordinates":[[[-77.03948179960591,38.89880188698132],[-77.05595236962888,38.904634356249915],[-77.0582929396894,38.90163942088577],[-77.0582761579292,38.90111609947401],[-77.05738440027947,38.90048206226154],[-77.05717405375387,38.89987092913836],[-77.05739273740251,38.89945843703569],[-77.05707027001198,38.89893140976278],[-77.05661040877936,38.89854185880108],[-77.05667540572564,38.894614313423915],[-77.05568673570977,38.89300299115172],[-77.05055290811536,38.89230719499116],[-77.03948445071241,38.8922719976014],[-77.03948179960591,38.89880188698132]]],"type":"Polygon"}},{"type":"Feature","properties":{"zone_name":"West End"},"geometry":{"coordinates":[[[-77.04753772508519,38.90538230454894],[-77.04868570988955,38.905348882891104],[-77.04868570988955,38.90954560254485],[-77.05002353848873,38.90954560254485],[-77.05039980278289,38.90892749662589],[-77.05127775280098,38.908797368377776],[-77.05223931710673,38.90882990046242],[-77.05332630284364,38.908569643370384],[-77.05374437428056,38.90801659388174],[-77.05437148143703,38.90704061368527],[-77.05596917831011,38.90464282596619],[-77.05019076706408,38.90261600183436],[-77.04753772508519,38.90538230454894]]],"type":"Polygon"}},{"type":"Feature","properties":{"zone_name":"U Street Corridor"},"geometry":{"coordinates":[[[-77.02386276958602,38.91704401493783],[-77.02388689983523,38.91765418982129],[-77.02506639961194,38.91961385317035],[-77.0250917641903,38.91997696437744],[-77.025228732911,38.919988804929005],[-77.02543164953447,38.92005590135088],[-77.02583309462726,38.920498977911365],[-77.02611317259975,38.92065151182439],[-77.02672934413923,38.92083309938889],[-77.02708410957125,38.92082583589493],[-77.02879184978174,38.920766475844005],[-77.03390091512274,38.919659810007374],[-77.03438074377482,38.919229933550724],[-77.03648136420878,38.91924390235792],[-77.03648136420878,38.91710664283184],[-77.03446293609932,38.917104710104326],[-77.03445998284423,38.91414928704643],[-77.02412187600669,38.91412844605651],[-77.02404974742566,38.91709038834102],[-77.02386276958602,38.91704401493783]]],"type":"Polygon"}},{"type":"Feature","properties":{"zone_name":"Chinatown"},"geometry":{"coordinates":[[[-77.02383237872297,38.90218279992931],[-77.02389057807069,38.89987287794898],[-77.01978752406671,38.89990684793426],[-77.0197869205394,38.89983707334315],[-77.01883667451672,38.89980953043457],[-77.01888543417918,38.9011863722132],[-77.02182450123165,38.90218279992931],[-77.02383237872297,38.90218279992931]]],"type":"Polygon"}},{"type":"Feature","properties":{"zone_name":"Mt Vernon Triangle"},"geometry":{"coordinates":[[[-77.01537911758449,38.907213731082635],[-77.02394144696588,38.907199547928855],[-77.02383625033337,38.902197253606204],[-77.02179524775377,38.902197253606204],[-77.01887094828406,38.90114065453048],[-77.01882887803491,38.89979828718819],[-77.01561050395586,38.89981465767471],[-77.0122238488802,38.898799680387754],[-77.01537911758449,38.907213731082635]]],"type":"Polygon"}},{"type":"Feature","properties":{"zone_name":"Judiciary Sq/East End"},"geometry":{"coordinates":[[[-77.01509203907605,38.891328732332624],[-77.01510253812485,38.8920874575484],[-77.01315844612037,38.8920874575484],[-77.00758538348842,38.89617283074],[-77.00787051698246,38.89665700759366],[-77.0080390049563,38.89687892088216],[-77.00829821722336,38.89706048578387],[-77.01223895878202,38.89879555717255],[-77.01559575764337,38.89980421797273],[-77.01883591602376,38.89980418116022],[-77.01979500141228,38.899834440762874],[-77.01988438945158,38.8925537097123],[-77.01509203907605,38.891328732332624]]],"type":"Polygon"}},{"type":"Feature","properties":{"zone_name":"Waterfront"},"geometry":{"coordinates":[[[-77.01509314252284,38.88746686667244],[-77.03224437206065,38.88747193355772],[-77.03354574182244,38.88770883527678],[-77.03515146419079,38.88697362046551],[-77.0383524140096,38.88690009856589],[-77.03714549850403,38.886181213759954],[-77.03680966114585,38.88547866021679],[-77.03630590510896,38.884988502467706],[-77.0352039387782,38.88496399449153],[-77.03431187079572,38.884637220667514],[-77.03374514525416,38.884147057113154],[-77.03303103854755,38.882896763583005],[-77.03250629267552,38.88266801540797],[-77.03183461795919,38.88253730183479],[-77.02996652265514,38.88176118504026],[-77.02954672595799,38.881630469798836],[-77.02849723421396,38.8817938638129],[-77.02814040702135,38.881499754316394],[-77.02848673929674,38.88121381336083],[-77.0269537233111,38.878780280547204],[-77.02475828241316,38.87708202994523],[-77.02279211573348,38.8766492532082],[-77.02183743293122,38.87438416685623],[-77.02137072023775,38.873530001952076],[-77.0212070603288,38.87324685767962],[-77.02052514404149,38.87396179479654],[-77.01938861689511,38.871838198157945],[-77.0191158503802,38.87179572557801],[-77.01867033302673,38.870188828977035],[-77.01866106934519,38.86161157747517],[-77.01837011839636,38.8612575876156],[-77.01779730871439,38.86112307100663],[-77.01533252793715,38.86212917486188],[-77.01532343572018,38.864097312014394],[-77.01465970386677,38.86408315294918],[-77.01465970386677,38.86396988032314],[-77.01433238404884,38.863962800778154],[-77.0139323264934,38.86355926554219],[-77.0129958281251,38.863516788015716],[-77.01204114532285,38.86365130009571],[-77.01140469012095,38.8639911189542],[-77.01033156087513,38.86519615902853],[-77.01012243988015,38.865854542286144],[-77.00973147454167,38.866031525992724],[-77.00908592712283,38.867036785088914],[-77.00907439422161,38.88758632711884],[-77.01509314252284,38.88746686667244]]],"type":"Polygon"}},{"type":"Feature","properties":{"zone_name":"Navy Yard"},"geometry":{"coordinates":[[[-77.00915028046951,38.88141210417777],[-77.00911531419635,38.867186754083605],[-77.00741243931955,38.869364924048796],[-77.00579228663373,38.87149884315562],[-77.00260053011671,38.872663658308],[-76.99891006164341,38.87276719650913],[-76.9927925283187,38.87121410765977],[-76.99056494824953,38.872534235345114],[-76.99116340259638,38.87359549668682],[-76.99139613484273,38.874967347621265],[-76.99113015513286,38.876805068698246],[-76.99132963991514,38.87740037660356],[-76.99186159933491,38.877762735495054],[-77.0033652217823,38.880713303406594],[-77.00635749351706,38.88073918503861],[-77.00915028046951,38.88141210417777]]],"type":"Polygon"}},{"type":"Feature","properties":{"zone_name":"Capitol Hill"},"geometry":{"coordinates":[[[-77.00350917517005,38.897337334512514],[-77.00350831535144,38.89523176461637],[-77.00545885815403,38.8958368782252],[-77.00597718421369,38.89578379829018],[-77.0063727488378,38.89576256630494],[-77.00683651425946,38.89581564625581],[-77.00757308287059,38.896176588867746],[-77.01316561949959,38.892089522770135],[-77.01508888198344,38.892089522770135],[-77.01510109993205,38.88746888939872],[-77.00908268836149,38.887519335542976],[-77.0090360079668,38.881396610397104],[-77.0063285450596,38.88070618098672],[-77.00336433997973,38.88072435026788],[-76.9918483548792,38.87775220616385],[-76.99134142215355,38.87739769771201],[-76.9883355774324,38.87695923051595],[-76.98828073098097,38.89734682022433],[-77.00350917517005,38.897337334512514]]],"type":"Polygon"}},{"type":"Feature","properties":{"zone_name":"NoMa"},"geometry":{"coordinates":[[[-77.00350951146874,38.89522355659824],[-77.00355841582041,38.90407590817898],[-77.00306130815882,38.90564517654309],[-77.00204105273501,38.905650047362485],[-77.00200349732066,38.9077980463521],[-77.0046958951397,38.908897319037436],[-77.0147134287708,38.905435562871446],[-77.01223612128393,38.89877887934088],[-77.00826307962768,38.89703276152264],[-77.00760869629622,38.89617181262929],[-77.00678292685379,38.89578377591249],[-77.00547416019037,38.89583228061778],[-77.00350951146874,38.89522355659824]]],"type":"Polygon"}},{"type":"Feature","properties":{"zone_name":"Atlas District"},"geometry":{"coordinates":[[[-77.0019888397202,38.90779297228582],[-77.00203939918401,38.90563663427554],[-77.00307837152597,38.90558610245051],[-77.00356538981117,38.90408276419521],[-77.00354915280441,38.897311035316534],[-76.9882854719502,38.897345660409655],[-76.9882854719502,38.90194444293931],[-77.0019888397202,38.90779297228582]]],"type":"Polygon"}},{"type":"Feature","properties":{"zone_name":"Truxton Circle"},"geometry":{"coordinates":[[[-77.00472394215973,38.90889370698858],[-77.0179085837631,38.91461836369831],[-77.0147271443823,38.90544203669862],[-77.00472394215973,38.90889370698858]]],"type":"Polygon"}},{"type":"Feature","properties":{"zone_name":"AdMo"},"geometry":{"coordinates":[[[-77.03649960480288,38.91710100263077],[-77.03645214069213,38.92585188247838],[-77.03757189634567,38.92698549497632],[-77.0383949329047,38.92717224279272],[-77.04173851892683,38.927238938322006],[-77.04263014186594,38.92758575406427],[-77.0441561888195,38.92615846302391],[-77.04446482752913,38.925638228307605],[-77.0447220264538,38.9241441997076],[-77.04451123758916,38.92381431201039],[-77.04355278831329,38.92327201440585],[-77.04304244519224,38.92316549117476],[-77.04268147078947,38.92266192464493],[-77.04315447173096,38.92231329956937],[-77.04436768271614,38.919688875256924],[-77.04612276515583,38.91693844898336],[-77.04625968229988,38.91658979605177],[-77.04613520836826,38.914536581367884],[-77.04597339225624,38.91466248775188],[-77.04134296198902,38.91706435137098],[-77.03649960480288,38.91710100263077]]],"type":"Polygon"}},{"type":"Feature","properties":{"zone_name":"Mt Pleasant"},"geometry":{"coordinates":[[[-77.03646024893564,38.9258932655531],[-77.03642672117766,38.93828171794621],[-77.03857249766507,38.93723856328825],[-77.04091944069755,38.93627363156736],[-77.0422708026965,38.936133600021975],[-77.04586070743837,38.93572997813692],[-77.04759251234364,38.93508570941853],[-77.04841850812478,38.934023092389566],[-77.05014462751407,38.93316639730148],[-77.05010226875629,38.93258976978126],[-77.04778522056367,38.931986840963305],[-77.04710748043507,38.93171499833824],[-77.04568846204158,38.93052052597173],[-77.04500013276848,38.930008382788344],[-77.04410000916035,38.92895392768028],[-77.04383526692305,38.928039504700905],[-77.04345403810099,38.92802302850288],[-77.0426280423198,38.92757816971499],[-77.04172791871169,38.927240404697784],[-77.03842934173095,38.92718462439356],[-77.03756098719131,38.92699514560445],[-77.03646024893564,38.9258932655531]]],"type":"Polygon"}},{"type":"Feature","properties":{"zone_name":"Columbia Heights"},"geometry":{"coordinates":[[[-77.0364348122114,38.937442181955305],[-77.03648337940753,38.91924006416335],[-77.03437466138517,38.91922955034008],[-77.03390511186544,38.919662093485556],[-77.02878655299163,38.920766916617936],[-77.02672945310869,38.92083349649383],[-77.02611340413824,38.92064645422121],[-77.02582416163415,38.92050617219297],[-77.02544100922569,38.92004440855669],[-77.02514759600149,38.91999069504021],[-77.0255100483119,38.92391169074213],[-77.02685933057641,38.9328469515917],[-77.02525415669933,38.93507762844723],[-77.03403542939489,38.93741746250507],[-77.0364348122114,38.937442181955305]]],"type":"Polygon"}},{"type":"Feature","properties":{"zone_name":"Howard/LeDroit Park"},"geometry":{"coordinates":[[[-77.02611349631344,38.927849589093114],[-77.02547566959105,38.92389698631047],[-77.02505776911464,38.91963617621042],[-77.02387007138496,38.91763401372063],[-77.0238480769823,38.917035065246296],[-77.0229463064841,38.91679548444148],[-77.01219104370679,38.91212349707672],[-77.0121690493049,38.921313157725734],[-77.0126749205599,38.921278934008996],[-77.0149403440075,38.92066290429153],[-77.01804155474683,38.92035488742712],[-77.01826149465464,38.92377722614856],[-77.01905329314107,38.92461567292369],[-77.0203069740787,38.92630964739806],[-77.02048292929767,38.92750738271624],[-77.02037295728589,38.92769559642798],[-77.02004304124914,38.92793514042913],[-77.01929523156801,38.9279864711813],[-77.01940520357977,38.928551107004466],[-77.02611349631344,38.927849589093114]]],"type":"Polygon"}},{"type":"Feature","properties":{"zone_name":"Kalorama"},"geometry":{"coordinates":[[[-77.04476226946437,38.92416324131068],[-77.04668045929422,38.92410692770474],[-77.04698206146831,38.92365641724723],[-77.04734398407756,38.92365641724723],[-77.0475249453822,38.92253951440196],[-77.0484176891241,38.921478909505794],[-77.048453881385,38.92104715438262],[-77.04815227921088,38.92044644723285],[-77.0489967652989,38.91934826632695],[-77.05069300372323,38.91883347446711],[-77.05260622282172,38.91895235199681],[-77.05350968739565,38.91892650907218],[-77.05431348091686,38.918662916989035],[-77.05553581534092,38.9176705378936],[-77.05619802365824,38.91811912811275],[-77.05739138412949,38.917109895306055],[-77.05730836774933,38.917021082132294],[-77.05770269555684,38.91659316255354],[-77.05779608898503,38.91606835200017],[-77.05769504035513,38.915885914135686],[-77.05627755723692,38.91479696685235],[-77.05592767216365,38.91458057149211],[-77.0550484737742,38.91423154532677],[-77.05476138858626,38.91404307048384],[-77.05420516103368,38.91336595302994],[-77.0536758477175,38.912940133590865],[-77.05327213290654,38.91277259703773],[-77.05274281959036,38.91246544627859],[-77.05206099226828,38.9118790638658],[-77.0518367069645,38.91186510232055],[-77.05063453773815,38.91220017864413],[-77.04878642683808,38.911683601984635],[-77.04761117156475,38.91273731335488],[-77.04710877248498,38.91367969990205],[-77.04613088856179,38.914531327351625],[-77.0462654588612,38.91661148763552],[-77.04613088767914,38.916960502095804],[-77.0443729098464,38.91971105118856],[-77.04315826074476,38.922326475774526],[-77.04270071872584,38.922696401252665],[-77.04304163238719,38.92315008081016],[-77.04354403146696,38.9232617553335],[-77.04453088680205,38.92380616611601],[-77.04476226946437,38.92416324131068]]],"type":"Polygon"}}]}